[{"OBJECT_NAME":"FLOCK 4BE-35","OBJECT_ID":"2024-149CU","EPOCH":"2026-03-06T04:58:22.772064","MEAN_MOTION":15.4288257,"ECCENTRICITY":0.00046657,"INCLINATION":97.3795,"RA_OF_ASC_NODE":148.4055,"ARG_OF_PERICENTER":269.8089,"MEAN_ANOMALY":90.2624,"EPHEMERIS_TYPE":0,"CLASSIFICATION_TYPE":"U","NORAD_CAT_ID":60558,"ELEMENT_SET_NO":999,"REV_AT_EPOCH":8646,"BSTAR":0.0021151284,"MEAN_MOTION_DOT":0.00093796,"MEAN_MOTION_DDOT":0},{"OBJECT_NAME":"FLOCK 4BE-5","OBJECT_ID":"2024-149CV","EPOCH":"2026-03-06T05:04:14.469312","MEAN_MOTION":15.36845185,"ECCENTRICITY":0.00025158,"INCLINATION":97.3885,"RA_OF_ASC_NODE":148.4576,"ARG_OF_PERICENTER":310.1882,"MEAN_ANOMALY":49.9142,"EPHEMERIS_TYPE":0,"CLASSIFICATION_TYPE":"U","NORAD_CAT_ID":60559,"ELEMENT_SET_NO":999,"REV_AT_EPOCH":8644,"BSTAR":0.00063229042,"MEAN_MOTION_DOT":0.00022732,"MEAN_MOTION_DDOT":0},{"OBJECT_NAME":"FLOCK 4BE-12","OBJECT_ID":"2024-149CW","EPOCH":"2026-03-06T11:52:26.463072","MEAN_MOTION":15.4587074,"ECCENTRICITY":0.00058642,"INCLINATION":97.3765,"RA_OF_ASC_NODE":149.4114,"ARG_OF_PERICENTER":273.1659,"MEAN_ANOMALY":86.8919,"EPHEMERIS_TYPE":0,"CLASSIFICATION_TYPE":"U","NORAD_CAT_ID":60560,"ELEMENT_SET_NO":999,"REV_AT_EPOCH":8657,"BSTAR":0.002224461,"MEAN_MOTION_DOT":0.00109368,"MEAN_MOTION_DDOT":0},{"OBJECT_NAME":"FLOCK 4BE-3","OBJECT_ID":"2024-149CX","EPOCH":"2026-03-06T05:11:55.441824","MEAN_MOTION":15.38039693,"ECCENTRICITY":0.00031314,"INCLINATION":97.3747,"RA_OF_ASC_NODE":148.3867,"ARG_OF_PERICENTER":296.5072,"MEAN_ANOMALY":63.5851,"EPHEMERIS_TYPE":0,"CLASSIFICATION_TYPE":"U","NORAD_CAT_ID":60561,"ELEMENT_SET_NO":999,"REV_AT_EPOCH":8649,"BSTAR":0.00054311626,"MEAN_MOTION_DOT":0.00020277,"MEAN_MOTION_DDOT":0},{"OBJECT_NAME":"FLOCK 4BE-19","OBJECT_ID":"2024-149CZ","EPOCH":"2026-03-06T14:49:56.684352","MEAN_MOTION":15.40180721,"ECCENTRICITY":0.00031176,"INCLINATION":97.3782,"RA_OF_ASC_NODE":149.8829,"ARG_OF_PERICENTER":298.7098,"MEAN_ANOMALY":61.3835,"EPHEMERIS_TYPE":0,"CLASSIFICATION_TYPE":"U","NORAD_CAT_ID":60563,"ELEMENT_SET_NO":999,"REV_AT_EPOCH":8661,"BSTAR":0.00065292857,"MEAN_MOTION_DOT":0.00026181,"MEAN_MOTION_DDOT":0},{"OBJECT_NAME":"PELICAN-2","OBJECT_ID":"2025-009Y","EPOCH":"2026-03-06T05:13:53.185152","MEAN_MOTION":15.40330182,"ECCENTRICITY":0.00076386,"INCLINATION":97.4019,"RA_OF_ASC_NODE":155.4824,"ARG_OF_PERICENTER":217.309,"MEAN_ANOMALY":142.7627,"EPHEMERIS_TYPE":0,"CLASSIFICATION_TYPE":"U","NORAD_CAT_ID":62631,"ELEMENT_SET_NO":999,"REV_AT_EPOCH":6370,"BSTAR":0.0016406925,"MEAN_MOTION_DOT":0.0006664,"MEAN_MOTION_DDOT":0},{"OBJECT_NAME":"PELICAN-3","OBJECT_ID":"2025-188A","EPOCH":"2026-03-06T02:28:16.779072","MEAN_MOTION":15.40614124,"ECCENTRICITY":0.0003927,"INCLINATION":97.2226,"RA_OF_ASC_NODE":142.6913,"ARG_OF_PERICENTER":185.4103,"MEAN_ANOMALY":174.7102,"EPHEMERIS_TYPE":0,"CLASSIFICATION_TYPE":"U","NORAD_CAT_ID":65315,"ELEMENT_SET_NO":999,"REV_AT_EPOCH":2944,"BSTAR":0.0012741969,"MEAN_MOTION_DOT":0.00052087,"MEAN_MOTION_DDOT":0},{"OBJECT_NAME":"PELICAN-4","OBJECT_ID":"2025-188B","EPOCH":"2026-03-06T04:24:16.318944","MEAN_MOTION":15.40590175,"ECCENTRICITY":0.00033661,"INCLINATION":97.2374,"RA_OF_ASC_NODE":142.8658,"ARG_OF_PERICENTER":97.3176,"MEAN_ANOMALY":262.8454,"EPHEMERIS_TYPE":0,"CLASSIFICATION_TYPE":"U","NORAD_CAT_ID":65316,"ELEMENT_SET_NO":999,"REV_AT_EPOCH":2945,"BSTAR":0.00020928305,"MEAN_MOTION_DOT":8.432e-5,"MEAN_MOTION_DDOT":0}]
